{"type": "FeatureCollection", "features": [ {"type": "Feature", "properties": {"norad_id": 34077, "name": "IRIDIUM 33 DEB", "group": "iridium-33-debris", "lat": 59.14096400940848, "lon": -135.09497899063004, "alt_km": 671.2068456960624, "timestamp": "2025-12-13T22:39:30.095429+00:00", "meta": {"OBJECT_NAME": "IRIDIUM 33 DEB", "OBJECT_ID": "1997-051CL", "EPOCH": "2025-12-13T06:00:37.185696", "MEAN_MOTION": 14.64852666, "ECCENTRICITY": 0.00101841, "INCLINATION": 86.3861, "RA_OF_ASC_NODE": 51.2821, "ARG_OF_PERICENTER": 38.2594, "MEAN_ANOMALY": 26.5563, "EPHEMERIS_TYPE": 0, "CLASSIFICATION_TYPE": "U", "NORAD_CAT_ID": 34077, "ELEMENT_SET_NO": 999, "REV_AT_EPOCH": 88340, "BSTAR": 0.0021526101, "MEAN_MOTION_DOT": 0.00011532, "MEAN_MOTION_DDOT": 0}, "tle": {"line1": "1 34077U 97051CL  25347.25043039  .00011532  00000+0  21526-2 0  9999", "line2": "2 34077  86.3861  51.2821 0010184  38.2594  26.5563 14.64852666883407"}}, "geometry": {"type": "Point", "coordinates": [-135.09497899063004, 59.14096400940848]}}, {"type": "Feature", "properties": {"norad_id": 34079, "name": "IRIDIUM 33 DEB", "group": "iridium-33-debris", "lat": -13.279162556418905, "lon": -171.02868061051439, "alt_km": 626.5732178078115, "timestamp": "2025-12-13T22:39:30.095440+00:00", "meta": {"OBJECT_NAME": "IRIDIUM 33 DEB", "OBJECT_ID": "1997-051CN", "EPOCH": "2025-12-13T02:38:00.660768", "MEAN_MOTION": 14.83544701, "ECCENTRICITY": 0.00055627, "INCLINATION": 86.3783, "RA_OF_ASC_NODE": 8.4941, "ARG_OF_PERICENTER": 6.7024, "MEAN_ANOMALY": 53.2279, "EPHEMERIS_TYPE": 0, "CLASSIFICATION_TYPE": "U", "NORAD_CAT_ID": 34079, "ELEMENT_SET_NO": 999, "REV_AT_EPOCH": 88983, "BSTAR": 0.002313304, "MEAN_MOTION_DOT": 0.00019103, "MEAN_MOTION_DDOT": 0}, "tle": {"line1": "1 34079U 97051CN  25347.10972987  .00019103  00000+0  23133-2 0  9996", "line2": "2 34079  86.3783   8.4941 0005562   6.7024  53.2279 14.83544701889834"}}, "geometry": {"type": "Point", "coordinates": [-171.02868061051439, -13.279162556418905]}}, {"type": "Feature", "properties": {"norad_id": 34088, "name": "IRIDIUM 33 DEB", "group": "iridium-33-debris", "lat": -41.353258423227395, "lon": 26.98127203692846, "alt_km": 603.3713889318169, "timestamp": "2025-12-13T22:39:30.095451+00:00", "meta": {"OBJECT_NAME": "IRIDIUM 33 DEB", "OBJECT_ID": "1997-051CX", "EPOCH": "2025-12-13T02:11:05.412768", "MEAN_MOTION": 14.9141682, "ECCENTRICITY": 0.00057602, "INCLINATION": 86.3854, "RA_OF_ASC_NODE": 30.5626, "ARG_OF_PERICENTER": 175.2216, "MEAN_ANOMALY": 246.158, "EPHEMERIS_TYPE": 0, "CLASSIFICATION_TYPE": "U", "NORAD_CAT_ID": 34088, "ELEMENT_SET_NO": 999, "REV_AT_EPOCH": 88747, "BSTAR": 0.0035959304, "MEAN_MOTION_DOT": 0.00036087, "MEAN_MOTION_DDOT": 0}, "tle": {"line1": "1 34088U 97051CX  25347.09103487  .00036087  00000+0  35959-2 0  9994", "line2": "2 34088  86.3854  30.5626 0005760 175.2216 246.1580 14.91416820887479"}}, "geometry": {"type": "Point", "coordinates": [26.98127203692846, -41.353258423227395]}}, {"type": "Feature", "properties": {"norad_id": 34091, "name": "IRIDIUM 33 DEB", "group": "iridium-33-debris", "lat": 76.54422861858079, "lon": -129.23139351197736, "alt_km": 639.0793537511918, "timestamp": "2025-12-13T22:39:30.095463+00:00", "meta": {"OBJECT_NAME": "IRIDIUM 33 DEB", "OBJECT_ID": "1997-051DA", "EPOCH": "2025-12-13T05:59:19.095648", "MEAN_MOTION": 14.81906708, "ECCENTRICITY": 0.00333516, "INCLINATION": 86.341, "RA_OF_ASC_NODE": 66.5996, "ARG_OF_PERICENTER": 291.5333, "MEAN_ANOMALY": 68.2335, "EPHEMERIS_TYPE": 0, "CLASSIFICATION_TYPE": "U", "NORAD_CAT_ID": 34091, "ELEMENT_SET_NO": 999, "REV_AT_EPOCH": 87874, "BSTAR": 0.0088938354, "MEAN_MOTION_DOT": 0.00071729, "MEAN_MOTION_DDOT": 0}, "tle": {"line1": "1 34091U 97051DA  25347.24952657  .00071729  00000+0  88938-2 0  9993", "line2": "2 34091  86.3410  66.5996 0033351 291.5333  68.2335 14.81906708878748"}}, "geometry": {"type": "Point", "coordinates": [-129.23139351197736, 76.54422861858079]}}, {"type": "Feature", "properties": {"norad_id": 34097, "name": "IRIDIUM 33 DEB", "group": "iridium-33-debris", "lat": 32.16366503634572, "lon": 178.48211029053746, "alt_km": 824.65740008788, "timestamp": "2025-12-13T22:39:30.095479+00:00", "meta": {"OBJECT_NAME": "IRIDIUM 33 DEB", "OBJECT_ID": "1997-051DG", "EPOCH": "2025-12-13T01:53:21.702624", "MEAN_MOTION": 14.34781379, "ECCENTRICITY": 0.00825399, "INCLINATION": 86.2011, "RA_OF_ASC_NODE": 1.2585, "ARG_OF_PERICENTER": 1.0814, "MEAN_ANOMALY": 359.0544, "EPHEMERIS_TYPE": 0, "CLASSIFICATION_TYPE": "U", "NORAD_CAT_ID": 34097, "ELEMENT_SET_NO": 999, "REV_AT_EPOCH": 87124, "BSTAR": 0.0020934094, "MEAN_MOTION_DOT": 6.186e-05, "MEAN_MOTION_DDOT": 0}, "tle": {"line1": "1 34097U 97051DG  25347.07872341  .00006186  00000+0  20934-2 0  9998", "line2": "2 34097  86.2011   1.2585 0082539   1.0814 359.0544 14.34781379871244"}}, "geometry": {"type": "Point", "coordinates": [178.48211029053746, 32.16366503634572]}}, {"type": "Feature", "properties": {"norad_id": 34145, "name": "IRIDIUM 33 DEB", "group": "iridium-33-debris", "lat": 86.07113902738205, "lon": 46.70909343686797, "alt_km": 703.6792404708913, "timestamp": "2025-12-13T22:39:30.095490+00:00", "meta": {"OBJECT_NAME": "IRIDIUM 33 DEB", "OBJECT_ID": "1997-051DY", "EPOCH": "2025-12-13T03:56:04.562016", "MEAN_MOTION": 14.42295665, "ECCENTRICITY": 0.00557423, "INCLINATION": 86.2121, "RA_OF_ASC_NODE": 332.338, "ARG_OF_PERICENTER": 92.4586, "MEAN_ANOMALY": 268.2998, "EPHEMERIS_TYPE": 0, "CLASSIFICATION_TYPE": "U", "NORAD_CAT_ID": 34145, "ELEMENT_SET_NO": 999, "REV_AT_EPOCH": 87644, "BSTAR": 0.0018432555, "MEAN_MOTION_DOT": 6.217e-05, "MEAN_MOTION_DDOT": 0}, "tle": {"line1": "1 34145U 97051DY  25347.16394169  .00006217  00000+0  18433-2 0  9995", "line2": "2 34145  86.2121 332.3380 0055742  92.4586 268.2998 14.42295665876445"}}, "geometry": {"type": "Point", "coordinates": [46.70909343686797, 86.07113902738205]}}, {"type": "Feature", "properties": {"norad_id": 34146, "name": "IRIDIUM 33 DEB", "group": "iridium-33-debris", "lat": 64.09340401427886, "lon": 161.5794590336175, "alt_km": 726.2304677735583, "timestamp": "2025-12-13T22:39:30.095501+00:00", "meta": {"OBJECT_NAME": "IRIDIUM 33 DEB", "OBJECT_ID": "1997-051DZ", "EPOCH": "2025-12-13T07:30:17.081280", "MEAN_MOTION": 14.49057654, "ECCENTRICITY": 0.00255419, "INCLINATION": 86.284, "RA_OF_ASC_NODE": 349.5476, "ARG_OF_PERICENTER": 219.5819, "MEAN_ANOMALY": 204.644, "EPHEMERIS_TYPE": 0, "CLASSIFICATION_TYPE": "U", "NORAD_CAT_ID": 34146, "ELEMENT_SET_NO": 999, "REV_AT_EPOCH": 88115, "BSTAR": 0.0015611162, "MEAN_MOTION_DOT": 5.97e-05, "MEAN_MOTION_DDOT": 0}, "tle": {"line1": "1 34146U 97051DZ  25347.31269770  .00005970  00000+0  15611-2 0  9992", "line2": "2 34146  86.2840 349.5476 0025541 219.5819 204.6440 14.49057654881156"}}, "geometry": {"type": "Point", "coordinates": [161.5794590336175, 64.09340401427886]}}, {"type": "Feature", "properties": {"norad_id": 34159, "name": "IRIDIUM 33 DEB", "group": "iridium-33-debris", "lat": 35.00088717650936, "lon": -134.83319261781702, "alt_km": 775.1758805584686, "timestamp": "2025-12-13T22:39:30.095512+00:00", "meta": {"OBJECT_NAME": "IRIDIUM 33 DEB", "OBJECT_ID": "1997-051EN", "EPOCH": "2025-12-13T05:17:25.528704", "MEAN_MOTION": 14.38497662, "ECCENTRICITY": 0.00259818, "INCLINATION": 86.3512, "RA_OF_ASC_NODE": 48.0362, "ARG_OF_PERICENTER": 286.1161, "MEAN_ANOMALY": 73.7177, "EPHEMERIS_TYPE": 0, "CLASSIFICATION_TYPE": "U", "NORAD_CAT_ID": 34159, "ELEMENT_SET_NO": 999, "REV_AT_EPOCH": 87966, "BSTAR": 0.00071168638, "MEAN_MOTION_DOT": 2.2e-05, "MEAN_MOTION_DDOT": 0}, "tle": {"line1": "1 34159U 97051EN  25347.22043436  .00002200  00000+0  71169-3 0  9999", "line2": "2 34159  86.3512  48.0362 0025981 286.1161  73.7177 14.38497662879660"}}, "geometry": {"type": "Point", "coordinates": [-134.83319261781702, 35.00088717650936]}}, {"type": "Feature", "properties": {"norad_id": 34350, "name": "IRIDIUM 33 DEB", "group": "iridium-33-debris", "lat": -23.947890888428795, "lon": -176.08060920091563, "alt_km": 741.4440091480428, "timestamp": "2025-12-13T22:39:30.095522+00:00", "meta": {"OBJECT_NAME": "IRIDIUM 33 DEB", "OBJECT_ID": "1997-051ES", "EPOCH": "2025-12-13T02:04:45.161184", "MEAN_MOTION": 14.45387979, "ECCENTRICITY": 0.00228554, "INCLINATION": 86.3275, "RA_OF_ASC_NODE": 2.6567, "ARG_OF_PERICENTER": 134.1045, "MEAN_ANOMALY": 290.6461, "EPHEMERIS_TYPE": 0, "CLASSIFICATION_TYPE": "U", "NORAD_CAT_ID": 34350, "ELEMENT_SET_NO": 999, "REV_AT_EPOCH": 88298, "BSTAR": 0.00046669756, "MEAN_MOTION_DOT": 1.666e-05, "MEAN_MOTION_DDOT": 0}, "tle": {"line1": "1 34350U 97051ES  25347.08663381  .00001666  00000+0  46670-3 0  9997", "line2": "2 34350  86.3275   2.6567 0022855 134.1045 290.6461 14.45387979882984"}}, "geometry": {"type": "Point", "coordinates": [-176.08060920091563, -23.947890888428795]}}, {"type": "Feature", "properties": {"norad_id": 34366, "name": "IRIDIUM 33 DEB", "group": "iridium-33-debris", "lat": -29.469216684130362, "lon": -129.15468722172741, "alt_km": 713.8434157461697, "timestamp": "2025-12-13T22:39:30.095556+00:00", "meta": {"OBJECT_NAME": "IRIDIUM 33 DEB", "OBJECT_ID": "1997-051FJ", "EPOCH": "2025-12-13T05:27:47.143872", "MEAN_MOTION": 14.54068911, "ECCENTRICITY": 0.00226142, "INCLINATION": 86.3698, "RA_OF_ASC_NODE": 49.101, "ARG_OF_PERICENTER": 138.0873, "MEAN_ANOMALY": 283.0228, "EPHEMERIS_TYPE": 0, "CLASSIFICATION_TYPE": "U", "NORAD_CAT_ID": 34366, "ELEMENT_SET_NO": 999, "REV_AT_EPOCH": 88189, "BSTAR": 0.0017655773, "MEAN_MOTION_DOT": 7.499e-05, "MEAN_MOTION_DDOT": 0}, "tle": {"line1": "1 34366U 97051FJ  25347.22762898  .00007499  00000+0  17656-2 0  9994", "line2": "2 34366  86.3698  49.1010 0022614 138.0873 283.0228 14.54068911881892"}}, "geometry": {"type": "Point", "coordinates": [-129.15468722172741, -29.469216684130362]}}]}